CCSDS_OMM_VERS,COMMENT,CREATION_DATE,ORIGINATOR,OBJECT_NAME,OBJECT_ID,CENTER_NAME,REF_FRAME,TIME_SYSTEM,MEAN_ELEMENT_THEORY,EPOCH,MEAN_MOTION,ECCENTRICITY,INCLINATION,RA_OF_ASC_NODE,ARG_OF_PERICENTER,MEAN_ANOMALY,EPHEMERIS_TYPE,CLASSIFICATION_TYPE,NORAD_CAT_ID,ELEMENT_SET_NO,REV_AT_EPOCH,BSTAR,MEAN_MOTION_DOT,MEAN_MOTION_DDOT,SEMIMAJOR_AXIS,PERIOD,APOAPSIS,PERIAPSIS,OBJECT_TYPE,RCS_SIZE,COUNTRY_CODE,LAUNCH_DATE,SITE,DECAY_DATE,FILE,GP_ID,TLE_LINE0,TLE_LINE1,TLE_LINE2
"2.0","GENERATED VIA SPACE-TRACK.ORG API","2020-08-21T16:49:28","18 SPCS","IRIDIUM 153","2017-083J","EARTH","TEME","UTC","SGP4","2020-08-21T14:04:58.341504","14.34216858","0.00024580","86.3941","98.7680","107.8229","252.3235","0","U","43078","999","14061","0.00000451550000","0.00000032","0.0000000000000","7155.807","100.403","779.431","775.913","PAYLOAD","LARGE","US","2017-12-23","AFWTR","","2805939","159830744","0 IRIDIUM 153","1 43078U 17083J   20234.58678636 +.00000032 +00000-0 +45155-5 0  9991","2 43078 086.3941 098.7680 0002458 107.8229 252.3235 14.34216858140617"
"2.0","GENERATED VIA SPACE-TRACK.ORG API","2020-08-21T16:49:28","18 SPCS","COSMOS 1867","1987-060A","EARTH","TEME","UTC","SGP4","2020-08-21T09:03:57.362400","14.31113941","0.00140790","65.0089","219.0271","276.2016","83.7464","0","U","18187","999","72993","0.00000233130000","-0.00000094","0.0000000000000","7166.146","100.620","798.101","777.922","PAYLOAD","LARGE","CIS","1987-07-10","TTMTR","","2805939","159819549","0 COSMOS 1867","1 18187U 87060A   20234.37774725 -.00000094 +00000-0 +23313-5 0  9990","2 18187 065.0089 219.0271 0014079 276.2016 083.7464 14.31113941729932"
"2.0","GENERATED VIA SPACE-TRACK.ORG API","2020-08-21T06:16:09","18 SPCS","COSMOS 1867","1987-060A","EARTH","TEME","UTC","SGP4","2020-08-21T02:21:26.646048","14.31113928","0.00140790","65.0089","219.8094","276.1551","83.7929","0","U","18187","999","73012","0.00000047051000","-0.00000099","0.0000000000000","7166.146","100.620","798.101","777.922","PAYLOAD","LARGE","CIS","1987-07-10","TTMTR","","2805593","159805233","0 COSMOS 1867","1 18187U 87060A   20234.09822507 -.00000099  00000-0  47051-6 0  9992","2 18187  65.0089 219.8094 0014079 276.1551  83.7929 14.31113928730120"
"2.0","GENERATED VIA SPACE-TRACK.ORG API","2020-08-20T22:16:09","18 SPCS","IRIDIUM 153","2017-083J","EARTH","TEME","UTC","SGP4","2020-08-20T16:18:54.286272","14.34216998","0.00024680","86.3942","99.1475","109.5431","250.6032","0","U","43078","999","14048","0.00002116200000","0.00000079","0.0000000000000","7155.806","100.403","779.437","775.905","PAYLOAD","LARGE","US","2017-12-23","AFWTR","","2805384","159759586","0 IRIDIUM 153","1 43078U 17083J   20233.67979498  .00000079  00000-0  21162-4 0  9992","2 43078  86.3942  99.1475 0002468 109.5431 250.6032 14.34216998140486"
"2.0","GENERATED VIA SPACE-TRACK.ORG API","2020-08-21T01:54:52","18 SPCS","COSMOS 1867","1987-060A","EARTH","TEME","UTC","SGP4","2020-08-20T16:17:40.574112","14.31113938","0.00140760","65.0089","220.9829","276.1522","83.7959","0","U","18187","999","72983","0.00000282140000","-0.00000093","0.0000000000000","7166.146","100.620","798.098","777.924","PAYLOAD","LARGE","CIS","1987-07-10","TTMTR","","2805563","159768233","0 COSMOS 1867","1 18187U 87060A   20233.67894183 -.00000093 +00000-0 +28214-5 0  9997","2 18187 065.0089 220.9829 0014076 276.1522 083.7959 14.31113938729834"
"2.0","GENERATED VIA SPACE-TRACK.ORG API","2020-08-20T06:16:09","18 SPCS","COSMOS 1867","1987-060A","EARTH","TEME","UTC","SGP4","2020-08-20T01:12:01.459296","14.31113943","0.00140690","65.0089","222.7431","276.0674","83.8807","0","U","18187","999","72997","0.00000119710000","-0.00000097","0.0000000000000","7166.146","100.620","798.093","777.929","PAYLOAD","LARGE","CIS","1987-07-10","TTMTR","","2804985","159751738","0 COSMOS 1867","1 18187U 87060A   20233.05001689 -.00000097  00000-0  11971-5 0  9996","2 18187  65.0089 222.7431 0014069 276.0674  83.8807 14.31113943729976"
"2.0","GENERATED VIA SPACE-TRACK.ORG API","2020-08-20T02:56:29","18 SPCS","IRIDIUM 153","2017-083J","EARTH","TEME","UTC","SGP4","2020-08-19T21:53:46.258944","14.34220139","0.00023600","86.3943","99.4684","109.2618","250.8834","0","U","43078","999","14037","0.00002333500000","0.00000085","0.0000000000000","7155.796","100.402","779.349","775.972","PAYLOAD","LARGE","US","2017-12-23","AFWTR","","2804968","159748718","0 IRIDIUM 153","1 43078U 17083J   20232.91234096 +.00000085 +00000-0 +23335-4 0  9997","2 43078 086.3943 099.4684 0002360 109.2618 250.8834 14.34220139140379"
"2.0","GENERATED VIA SPACE-TRACK.ORG API","2020-08-20T02:56:29","18 SPCS","COSMOS 1867","1987-060A","EARTH","TEME","UTC","SGP4","2020-08-19T16:48:53.066016","14.31113936","0.00140680","65.0089","223.7210","276.0693","83.8788","0","U","18187","999","72969","0.00000171030000","-0.00000096","0.0000000000000","7166.146","100.620","798.093","777.930","PAYLOAD","LARGE","CIS","1987-07-10","TTMTR","","2804968","159735489","0 COSMOS 1867","1 18187U 87060A   20232.70061419 -.00000096 +00000-0 +17103-5 0  9996","2 18187 065.0089 223.7210 0014068 276.0693 083.8788 14.31113936729691"
"2.0","GENERATED VIA SPACE-TRACK.ORG API","2020-08-19T14:16:09","18 SPCS","IRIDIUM 153","2017-083J","EARTH","TEME","UTC","SGP4","2020-08-19T08:30:02.337408","14.34220089","0.00023370","86.3944","99.7019","109.6145","250.5303","0","U","43078","999","14029","0.00002466300000","0.00000089","0.0000000000000","7155.796","100.403","779.333","775.989","PAYLOAD","LARGE","US","2017-12-23","AFWTR","","2804589","159702729","0 IRIDIUM 153","1 43078U 17083J   20232.35419372  .00000089  00000-0  24663-4 0  9996","2 43078  86.3944  99.7019 0002337 109.6145 250.5303 14.34220089140291"
"2.0","GENERATED VIA SPACE-TRACK.ORG API","2020-08-19T17:47:06","18 SPCS","COSMOS 1867","1987-060A","EARTH","TEME","UTC","SGP4","2020-08-19T08:25:44.671872","14.31113920","0.00140660","65.0089","224.6990","276.0319","83.9162","0","U","18187","999","72964","0.00000046538000","-0.00000099","0.0000000000000","7166.146","100.620","798.091","777.931","PAYLOAD","LARGE","CIS","1987-07-10","TTMTR","","2804760","159713519","0 COSMOS 1867","1 18187U 87060A   20232.35121148 -.00000099 +00000-0 +46538-6 0  9991","2 18187 065.0089 224.6990 0014066 276.0319 083.9162 14.31113920729644"
"2.0","GENERATED VIA SPACE-TRACK.ORG API","2020-08-19T01:28:02","18 SPCS","IRIDIUM 153","2017-083J","EARTH","TEME","UTC","SGP4","2020-08-18T22:27:14.399712","14.34219980","0.00023120","86.3945","99.8770","109.6948","250.4498","0","U","43078","999","14023","0.00002214800000","0.00000082","0.0000000000000","7155.796","100.403","779.316","776.007","PAYLOAD","LARGE","US","2017-12-23","AFWTR","","2804379","159694302","0 IRIDIUM 153","1 43078U 17083J   20231.93558333 +.00000082 +00000-0 +22148-4 0  9999","2 43078 086.3945 099.8770 0002312 109.6948 250.4498 14.34219980140237"
"2.0","GENERATED VIA SPACE-TRACK.ORG API","2020-08-19T01:28:02","18 SPCS","COSMOS 1867","1987-060A","EARTH","TEME","UTC","SGP4","2020-08-18T22:21:58.599072","14.31113931","0.00140580","65.0088","225.8725","276.0012","83.9470","0","U","18187","999","72958","-0.00000000482130","-0.00000100","0.0000000000000","7166.146","100.620","798.085","777.937","PAYLOAD","LARGE","CIS","1987-07-10","TTMTR","","2804379","159683948","0 COSMOS 1867","1 18187U 87060A   20231.93192823 -.00000100 +00000-0 -48213-8 0  9990","2 18187 065.0088 225.8725 0014058 276.0012 083.9470 14.31113931729580"
"2.0","GENERATED VIA SPACE-TRACK.ORG API","2020-08-18T22:26:09","18 SPCS","COSMOS 1867","1987-060A","EARTH","TEME","UTC","SGP4","2020-08-18T17:20:05.561376","14.31113925","0.00140570","65.0089","226.4592","276.0024","83.9458","0","U","18187","999","72978","-0.00000034678000","-0.00000101","0.0000000000000","7166.146","100.620","798.085","777.938","PAYLOAD","LARGE","CIS","1987-07-10","TTMTR","","2804220","159674406","0 COSMOS 1867","1 18187U 87060A   20231.72228659 -.00000101  00000-0 -34678-6 0  9993","2 18187  65.0089 226.4592 0014057 276.0024  83.9458 14.31113925729783"
"2.0","GENERATED VIA SPACE-TRACK.ORG API","2020-08-18T20:17:42","18 SPCS","IRIDIUM 153","2017-083J","EARTH","TEME","UTC","SGP4","2020-08-18T14:04:54.445728","14.34219962","0.00022980","86.3945","100.0229","109.8397","250.3047","0","U","43078","999","14018","0.00002259500000","0.00000083","0.0000000000000","7155.796","100.403","779.306","776.017","PAYLOAD","LARGE","US","2017-12-23","AFWTR","","2804180","159670574","0 IRIDIUM 153","1 43078U 17083J   20231.58674127 +.00000083 +00000-0 +22595-4 0  9997","2 43078 086.3945 100.0229 0002298 109.8397 250.3047 14.34219962140187"
"2.0","GENERATED VIA SPACE-TRACK.ORG API","2020-08-18T20:17:42","18 SPCS","COSMOS 1867","1987-060A","EARTH","TEME","UTC","SGP4","2020-08-18T08:56:57.168960","14.31113911","0.00140530","65.0088","227.4371","275.9499","83.9983","0","U","18187","999","72950","-0.00000069148000","-0.00000102","0.0000000000000","7166.146","100.620","798.082","777.941","PAYLOAD","LARGE","CIS","1987-07-10","TTMTR","","2804180","159658860","0 COSMOS 1867","1 18187U 87060A   20231.37288390 -.00000102 +00000-0 -69148-6 0  9993","2 18187 065.0088 227.4371 0014053 275.9499 083.9983 14.31113911729506"
"2.0","GENERATED VIA SPACE-TRACK.ORG API","2020-08-18T06:16:09","18 SPCS","IRIDIUM 153","2017-083J","EARTH","TEME","UTC","SGP4","2020-08-18T02:21:38.508768","14.34219909","0.00022750","86.3946","100.2271","110.0606","250.0835","0","U","43078","999","14011","0.00002269600000","0.00000083","0.0000000000000","7155.796","100.403","779.289","776.034","PAYLOAD","LARGE","US","2017-12-23","AFWTR","","2803781","159644358","0 IRIDIUM 153","1 43078U 17083J   20231.09836237  .00000083  00000-0  22696-4 0  9997","2 43078  86.3946 100.2271 0002275 110.0606 250.0835 14.34219909140115"
